ONEWEB-0473             
1 51653U 22012AH  26200.47714331 -.00000610  00000+0 -17844-2 0  9991
2 51653  87.8816  29.8401 0001853  90.5233 269.6107 13.10374045213536
ONEWEB-0474             
1 51654U 22012AJ  26200.46865493 -.00000471  00000+0 -13847-2 0  9991
2 51654  87.8822  29.8293 0001635  96.9067 263.2247 13.10370586213526
ONEWEB-0475             
1 51655U 22012AK  26200.49521523  .00000081  00000+0  17438-3 0  9994
2 51655  87.9149 359.4457 0001562 114.7780 245.3514 13.17648607217941
ONEWEB-0490             
1 54113U 22138A   26200.35671684 -.00000073  00000+0 -21426-3 0  9999
2 54113  87.9193 298.5632 0002101 105.9070 254.2295 13.19725909181076
ONEWEB-0492             
1 54114U 22138B   26200.30616577  .00000118  00000+0  26144-3 0  9995
2 54114  87.9184 298.5726 0002250 102.6229 257.5156 13.19723810181077
ONEWEB-0495             
1 54115U 22138C   26200.51150992  .00000017  00000+0  10706-4 0  9999
2 54115  87.9186 298.5344 0002343 116.2372 243.9001 13.19726859181084
ONEWEB-0497             
1 54116U 22138D   26200.52413731  .00000089  00000+0  18907-3 0  9993
2 54116  87.9191 298.5256 0002057 103.6423 256.4939 13.19724063181075
ONEWEB-0499             
1 54117U 22138E   26200.28011313  .00000103  00000+0  22423-3 0  9992
2 54117  87.9185 298.5811 0001983 106.9932 253.1418 13.19724711181058
ONEWEB-0500             
1 54118U 22138F   26200.28248740  .00000069  00000+0  13935-3 0  9998
2 54118  87.9191 298.5772 0002064  99.2348 260.9018 13.19726323181062
ONEWEB-0501             
1 54119U 22138G   26200.31250164  .00000097  00000+0  20989-3 0  9994
2 54119  87.9193 298.5714 0002183 111.7420 248.3946 13.19726491181048
ONEWEB-0502             
1 54120U 22138H   26200.52571440  .00000117  00000+0  26024-3 0  9991
2 54120  87.9194 298.5180 0001977 107.6933 252.4416 13.19724315181097
ONEWEB-0503             
1 54121U 22138J   26200.28721743  .00000111  00000+0  24480-3 0  9996
2 54121  87.9196 298.5719 0001745  99.8563 260.2767 13.19727165181050
ONEWEB-0504             
1 54122U 22138K   26200.50203156  .00000059  00000+0  11566-3 0  9997
2 54122  87.9192 298.5335 0001952 108.0064 252.1282 13.19726937181092
ONEWEB-0505             
1 54123U 22138L   26200.57468085  .00000071  00000+0  14412-3 0  9996
2 54123  87.9192 298.5195 0002107 113.4088 246.7266 13.19723992181084
ONEWEB-0506             
1 54124U 22138M   26200.32198309  .00000054  00000+0  10326-3 0  9990
2 54124  87.9194 298.5676 0002091 109.8416 250.2943 13.19725310181041
ONEWEB-0507             
1 54125U 22138N   26200.56994541  .00000115  00000+0  25570-3 0  9994
2 54125  87.9185 298.5274 0002121 105.9179 254.2188 13.19727699181129
ONEWEB-0508             
1 54126U 22138P   26200.56679581  .00000051  00000+0  96146-4 0  9996
2 54126  87.9185 298.5276 0002301 109.4325 250.7057 13.19726782181100
ONEWEB-0509             
1 54127U 22138Q   26200.54152137  .00000122  00000+0  27234-3 0  9998
2 54127  87.9196 298.5254 0002080 105.1460 254.9903 13.19724941181073
ONEWEB-0510             
1 54128U 22138R   26200.48016132  .00000088  00000+0  18423-3 0  9997
2 54128  87.9177 268.0011 0001909  86.0080 274.1271 13.20770819183543
ONEWEB-0511             
1 54129U 22138S   26200.31090745  .00000021  00000+0  20884-4 0  9994
2 54129  87.9193 298.5727 0001765 104.8517 255.2811 13.19723175181075
ONEWEB-0512             
1 54130U 22138T   26200.53045479 -.00000114  00000+0 -31723-3 0  9992
2 54130  87.9183 298.5318 0001978 110.4799 249.6546 13.19724990181071
ONEWEB-0513             
1 54131U 22138U   26200.29541427  .00000101  00000+0  21719-3 0  9998
2 54131  87.9191 298.5189 0001762 127.7371 232.3922 13.20269879180950
ONEWEB-0514             
1 54132U 22138V   26200.31880669 -.00000119  00000+0 -32857-3 0  9992
2 54132  87.9194 298.5705 0001947  96.8014 263.3340 13.19724581181068
ONEWEB-0515             
1 54133U 22138W   26200.61821718  .00000013  00000+0 -85771-6 0  9994
2 54133  87.9184 267.9696 0002686  83.6365 276.5074 13.20772225183580
ONEWEB-0516             
1 54134U 22138X   26200.29353417  .00000087  00000+0  18591-3 0  9998
2 54134  87.9185 298.5790 0002165 101.7005 258.4371 13.19724149181062
ONEWEB-0517             
1 54135U 22138Y   26200.50045255  .00000012  00000+0 -12553-5 0  9994
2 54135  87.9191 298.5328 0001696 100.2301 259.9023 13.19726819181097
ONEWEB-0518             
1 54136U 22138Z   26200.29195970  .00000119  00000+0  26600-3 0  9994
2 54136  87.9187 298.5817 0002233  99.9474 260.1911 13.19724700181063
ONEWEB-0519             
1 54137U 22138AA  26200.31722331  .00000030  00000+0  43700-4 0  9998
2 54137  87.9191 298.5703 0001826  99.1065 261.0275 13.19723507181076
ONEWEB-0520             
1 54138U 22138AB  26200.27616237 -.00000091  00000+0 -26018-3 0  9992
2 54138  87.9193 298.5789 0002113 107.5565 252.5798 13.19725811181055
ONEWEB-0521             
1 54139U 22138AC  26200.30931779 -.00000194  00000+0 -51630-3 0  9990
2 54139  87.9197 298.5613 0001789  97.2377 262.8959 13.19724689181000
