OBJECT_NAME,OBJECT_ID,EPOCH,MEAN_MOTION,ECCENTRICITY,INCLINATION,RA_OF_ASC_NODE,ARG_OF_PERICENTER,MEAN_ANOMALY,EPHEMERIS_TYPE,CLASSIFICATION_TYPE,NORAD_CAT_ID,ELEMENT_SET_NO,REV_AT_EPOCH,BSTAR,MEAN_MOTION_DOT,MEAN_MOTION_DDOT
ONEWEB-0473,2022-012AH,2026-07-19T11:27:05.181984,13.10374045,.00018533,87.8816,29.8401,90.5233,269.6107,0,U,51653,999,21353,-.17844011E-2,-.61E-5,0
ONEWEB-0474,2022-012AJ,2026-07-19T11:14:51.785952,13.10370586,.00016359,87.8822,29.8293,96.9067,263.2247,0,U,51654,999,21352,-.13846546E-2,-.471E-5,0
ONEWEB-0475,2022-012AK,2026-07-19T11:53:06.595872,13.17648607,.00015626,87.9149,359.4457,114.7780,245.3514,0,U,51655,999,21794,.17437854E-3,.81E-6,0
ONEWEB-0490,2022-138A,2026-07-19T08:33:40.334976,13.19725909,.00021016,87.9193,298.5632,105.9070,254.2295,0,U,54113,999,18107,-.21425816E-3,-.73E-6,0
ONEWEB-0492,2022-138B,2026-07-19T07:20:52.722528,13.19723810,.00022506,87.9184,298.5726,102.6229,257.5156,0,U,54114,999,18107,.26144252E-3,.118E-5,0
ONEWEB-0495,2022-138C,2026-07-19T12:16:34.457088,13.19726859,.00023437,87.9186,298.5344,116.2372,243.9001,0,U,54115,999,18108,.10705564E-4,.17E-6,0
ONEWEB-0497,2022-138D,2026-07-19T12:34:45.463584,13.19724063,.00020579,87.9191,298.5256,103.6423,256.4939,0,U,54116,999,18107,.18907414E-3,.89E-6,0
ONEWEB-0499,2022-138E,2026-07-19T06:43:21.774432,13.19724711,.00019834,87.9185,298.5811,106.9932,253.1418,0,U,54117,999,18105,.22423487E-3,.103E-5,0
ONEWEB-0500,2022-138F,2026-07-19T06:46:46.911360,13.19726323,.0002064,87.9191,298.5772,99.2348,260.9018,0,U,54118,999,18106,.13934693E-3,.69E-6,0
ONEWEB-0501,2022-138G,2026-07-19T07:30:00.141696,13.19726491,.00021831,87.9193,298.5714,111.7420,248.3946,0,U,54119,999,18104,.20988875E-3,.97E-6,0
ONEWEB-0502,2022-138H,2026-07-19T12:37:01.724160,13.19724315,.00019777,87.9194,298.5180,107.6933,252.4416,0,U,54120,999,18109,.26023583E-3,.117E-5,0
ONEWEB-0503,2022-138J,2026-07-19T06:53:35.585952,13.19727165,.0001745,87.9196,298.5719,99.8563,260.2767,0,U,54121,999,18105,.24479991E-3,.111E-5,0
ONEWEB-0504,2022-138K,2026-07-19T12:02:55.526784,13.19726937,.00019521,87.9192,298.5335,108.0064,252.1282,0,U,54122,999,18109,.1156634E-3,.59E-6,0
ONEWEB-0505,2022-138L,2026-07-19T13:47:32.425440,13.19723992,.00021074,87.9192,298.5195,113.4088,246.7266,0,U,54123,999,18108,.14411508E-3,.71E-6,0
ONEWEB-0506,2022-138M,2026-07-19T07:43:39.338976,13.19725310,.00020915,87.9194,298.5676,109.8416,250.2943,0,U,54124,999,18104,.10325799E-3,.54E-6,0
ONEWEB-0507,2022-138N,2026-07-19T13:40:43.283424,13.19727699,.00021217,87.9185,298.5274,105.9179,254.2188,0,U,54125,999,18112,.25570045E-3,.115E-5,0
ONEWEB-0508,2022-138P,2026-07-19T13:36:11.157984,13.19726782,.00023017,87.9185,298.5276,109.4325,250.7057,0,U,54126,999,18110,.9614595E-4,.51E-6,0
ONEWEB-0509,2022-138Q,2026-07-19T12:59:47.446368,13.19724941,.000208,87.9196,298.5254,105.1460,254.9903,0,U,54127,999,18107,.27234283E-3,.122E-5,0
ONEWEB-0510,2022-138R,2026-07-19T11:31:25.938048,13.20770819,.00019092,87.9177,268.0011,86.0080,274.1271,0,U,54128,999,18354,.18423003E-3,.88E-6,0
ONEWEB-0511,2022-138S,2026-07-19T07:27:42.403680,13.19723175,.00017652,87.9193,298.5727,104.8517,255.2811,0,U,54129,999,18107,.20884147E-4,.21E-6,0
ONEWEB-0512,2022-138T,2026-07-19T12:43:51.293856,13.19724990,.00019789,87.9183,298.5318,110.4799,249.6546,0,U,54130,999,18107,-.31723498E-3,-.114E-5,0
ONEWEB-0513,2022-138U,2026-07-19T07:05:23.792928,13.20269879,.00017629,87.9191,298.5189,127.7371,232.3922,0,U,54131,999,18095,.21718824E-3,.101E-5,0
ONEWEB-0514,2022-138V,2026-07-19T07:39:04.898016,13.19724581,.00019476,87.9194,298.5705,96.8014,263.3340,0,U,54132,999,18106,-.32856629E-3,-.119E-5,0
ONEWEB-0515,2022-138W,2026-07-19T14:50:13.964352,13.20772225,.0002686,87.9184,267.9696,83.6365,276.5074,0,U,54133,999,18358,-.857712E-6,.13E-6,0
ONEWEB-0516,2022-138X,2026-07-19T07:02:41.352288,13.19724149,.00021656,87.9185,298.5790,101.7005,258.4371,0,U,54134,999,18106,.18591371E-3,.87E-6,0
ONEWEB-0517,2022-138Y,2026-07-19T12:00:39.100320,13.19726819,.00016966,87.9191,298.5328,100.2301,259.9023,0,U,54135,999,18109,-.1255314E-5,.12E-6,0
ONEWEB-0518,2022-138Z,2026-07-19T07:00:25.318080,13.19724700,.00022338,87.9187,298.5817,99.9474,260.1911,0,U,54136,999,18106,.26599691E-3,.119E-5,0
ONEWEB-0519,2022-138AA,2026-07-19T07:36:48.093984,13.19723507,.00018261,87.9191,298.5703,99.1065,261.0275,0,U,54137,999,18107,.43699779E-4,.3E-6,0
ONEWEB-0520,2022-138AB,2026-07-19T06:37:40.428768,13.19725811,.00021133,87.9193,298.5789,107.5565,252.5798,0,U,54138,999,18105,-.26018209E-3,-.91E-6,0
ONEWEB-0521,2022-138AC,2026-07-19T07:25:25.057056,13.19724689,.00017891,87.9197,298.5613,97.2377,262.8959,0,U,54139,999,18100,-.51629815E-3,-.194E-5,0
